CCSDS_OMM_VERS = 2.0
CREATION_DATE  = 
ORIGINATOR     = 

OBJECT_NAME    = STARLINK-36649
OBJECT_ID      = 2026-033S
CENTER_NAME    = EARTH
REF_FRAME      = TEME
TIME_SYSTEM    = UTC
MEAN_ELEMENT_THEORY = SGP/SGP4

EPOCH          = 2026-03-03T13:25:10.614432
MEAN_MOTION    = 15.82208530
ECCENTRICITY   = .0002871
INCLINATION    = 42.9973
RA_OF_ASC_NODE = 308.9358
ARG_OF_PERICENTER = 243.8194
MEAN_ANOMALY   = 116.2382

EPHEMERIS_TYPE = 0
CLASSIFICATION_TYPE = U
NORAD_CAT_ID   = 67837
ELEMENT_SET_NO = 999
REV_AT_EPOCH   = 365
BSTAR          = .21014579E-2
MEAN_MOTION_DOT = .471124E-2
MEAN_MOTION_DDOT = 0

CCSDS_OMM_VERS = 2.0
CREATION_DATE  = 
ORIGINATOR     = 

OBJECT_NAME    = STARLINK-36654
OBJECT_ID      = 2026-033T
CENTER_NAME    = EARTH
REF_FRAME      = TEME
TIME_SYSTEM    = UTC
MEAN_ELEMENT_THEORY = SGP/SGP4

EPOCH          = 2026-03-03T13:24:05.633856
MEAN_MOTION    = 15.82231297
ECCENTRICITY   = .00031093
INCLINATION    = 42.9972
RA_OF_ASC_NODE = 308.9295
ARG_OF_PERICENTER = 238.6749
MEAN_ANOMALY   = 121.3819

EPHEMERIS_TYPE = 0
CLASSIFICATION_TYPE = U
NORAD_CAT_ID   = 67838
ELEMENT_SET_NO = 999
REV_AT_EPOCH   = 365
BSTAR          = .22891064E-2
MEAN_MOTION_DOT = .516528E-2
MEAN_MOTION_DDOT = 0

CCSDS_OMM_VERS = 2.0
CREATION_DATE  = 
ORIGINATOR     = 

OBJECT_NAME    = STARLINK-36652
OBJECT_ID      = 2026-033U
CENTER_NAME    = EARTH
REF_FRAME      = TEME
TIME_SYSTEM    = UTC
MEAN_ELEMENT_THEORY = SGP/SGP4

EPOCH          = 2026-03-03T14:53:55.631328
MEAN_MOTION    = 15.82059357
ECCENTRICITY   = .00021583
INCLINATION    = 42.9968
RA_OF_ASC_NODE = 308.5372
ARG_OF_PERICENTER = 250.3264
MEAN_ANOMALY   = 109.7375

EPHEMERIS_TYPE = 0
CLASSIFICATION_TYPE = U
NORAD_CAT_ID   = 67839
ELEMENT_SET_NO = 999
REV_AT_EPOCH   = 366
BSTAR          = .11225246E-2
MEAN_MOTION_DOT = .243084E-2
MEAN_MOTION_DDOT = 0

CCSDS_OMM_VERS = 2.0
CREATION_DATE  = 
ORIGINATOR     = 

OBJECT_NAME    = STARLINK-36651
OBJECT_ID      = 2026-033V
CENTER_NAME    = EARTH
REF_FRAME      = TEME
TIME_SYSTEM    = UTC
MEAN_ELEMENT_THEORY = SGP/SGP4

EPOCH          = 2026-03-03T14:52:50.675808
MEAN_MOTION    = 15.82089644
ECCENTRICITY   = .00023898
INCLINATION    = 42.9973
RA_OF_ASC_NODE = 308.5306
ARG_OF_PERICENTER = 244.8013
MEAN_ANOMALY   = 115.2611

EPHEMERIS_TYPE = 0
CLASSIFICATION_TYPE = U
NORAD_CAT_ID   = 67840
ELEMENT_SET_NO = 999
REV_AT_EPOCH   = 366
BSTAR          = .16801123E-2
MEAN_MOTION_DOT = .370061E-2
MEAN_MOTION_DDOT = 0

CCSDS_OMM_VERS = 2.0
CREATION_DATE  = 
ORIGINATOR     = 

OBJECT_NAME    = STARLINK-36656
OBJECT_ID      = 2026-033W
CENTER_NAME    = EARTH
REF_FRAME      = TEME
TIME_SYSTEM    = UTC
MEAN_ELEMENT_THEORY = SGP/SGP4

EPOCH          = 2026-03-03T14:51:45.804096
MEAN_MOTION    = 15.82044183
ECCENTRICITY   = .0002174
INCLINATION    = 42.9974
RA_OF_ASC_NODE = 308.5246
ARG_OF_PERICENTER = 279.3556
MEAN_ANOMALY   = 80.7069

EPHEMERIS_TYPE = 0
CLASSIFICATION_TYPE = U
NORAD_CAT_ID   = 67841
ELEMENT_SET_NO = 999
REV_AT_EPOCH   = 366
BSTAR          = .13324514E-2
MEAN_MOTION_DOT = .290023E-2
MEAN_MOTION_DDOT = 0

CCSDS_OMM_VERS = 2.0
CREATION_DATE  = 
ORIGINATOR     = 

OBJECT_NAME    = STARLINK-36653
OBJECT_ID      = 2026-033X
CENTER_NAME    = EARTH
REF_FRAME      = TEME
TIME_SYSTEM    = UTC
MEAN_ELEMENT_THEORY = SGP/SGP4

EPOCH          = 2026-03-03T14:50:41.183808
MEAN_MOTION    = 15.82029987
ECCENTRICITY   = .00015868
INCLINATION    = 42.9973
RA_OF_ASC_NODE = 308.5183
ARG_OF_PERICENTER = 275.6066
MEAN_ANOMALY   = 84.4625

EPHEMERIS_TYPE = 0
CLASSIFICATION_TYPE = U
NORAD_CAT_ID   = 67842
ELEMENT_SET_NO = 999
REV_AT_EPOCH   = 366
BSTAR          = .12638766E-2
MEAN_MOTION_DOT = .27438E-2
MEAN_MOTION_DDOT = 0

CCSDS_OMM_VERS = 2.0
CREATION_DATE  = 
ORIGINATOR     = 

OBJECT_NAME    = STARLINK-36589
OBJECT_ID      = 2026-033Y
CENTER_NAME    = EARTH
REF_FRAME      = TEME
TIME_SYSTEM    = UTC
MEAN_ELEMENT_THEORY = SGP/SGP4

EPOCH          = 2026-03-03T14:49:36.600672
MEAN_MOTION    = 15.82089756
ECCENTRICITY   = .00020167
INCLINATION    = 42.9975
RA_OF_ASC_NODE = 308.5126
ARG_OF_PERICENTER = 270.7351
MEAN_ANOMALY   = 89.3290

EPHEMERIS_TYPE = 0
CLASSIFICATION_TYPE = U
NORAD_CAT_ID   = 67843
ELEMENT_SET_NO = 999
REV_AT_EPOCH   = 366
BSTAR          = .16024901E-2
MEAN_MOTION_DOT = .352201E-2
MEAN_MOTION_DDOT = 0

CCSDS_OMM_VERS = 2.0
CREATION_DATE  = 
ORIGINATOR     = 

OBJECT_NAME    = STARLINK-36598
OBJECT_ID      = 2026-033Z
CENTER_NAME    = EARTH
REF_FRAME      = TEME
TIME_SYSTEM    = UTC
MEAN_ELEMENT_THEORY = SGP/SGP4

EPOCH          = 2026-03-03T14:48:31.891392
MEAN_MOTION    = 15.82076021
ECCENTRICITY   = .00020237
INCLINATION    = 42.9974
RA_OF_ASC_NODE = 308.5061
ARG_OF_PERICENTER = 269.0122
MEAN_ANOMALY   = 91.0518

EPHEMERIS_TYPE = 0
CLASSIFICATION_TYPE = U
NORAD_CAT_ID   = 67844
ELEMENT_SET_NO = 999
REV_AT_EPOCH   = 366
BSTAR          = .16129427E-2
MEAN_MOTION_DOT = .354364E-2
MEAN_MOTION_DDOT = 0

CCSDS_OMM_VERS = 2.0
CREATION_DATE  = 
ORIGINATOR     = 

OBJECT_NAME    = STARLINK-36606
OBJECT_ID      = 2026-033AA
CENTER_NAME    = EARTH
REF_FRAME      = TEME
TIME_SYSTEM    = UTC
MEAN_ELEMENT_THEORY = SGP/SGP4

EPOCH          = 2026-03-03T14:47:26.852928
MEAN_MOTION    = 15.82076080
ECCENTRICITY   = .00019945
INCLINATION    = 42.9973
RA_OF_ASC_NODE = 308.4996
ARG_OF_PERICENTER = 275.3927
MEAN_ANOMALY   = 84.6717

EPHEMERIS_TYPE = 0
CLASSIFICATION_TYPE = U
NORAD_CAT_ID   = 67845
ELEMENT_SET_NO = 999
REV_AT_EPOCH   = 366
BSTAR          = .15258873E-2
MEAN_MOTION_DOT = .334429E-2
MEAN_MOTION_DDOT = 0

CCSDS_OMM_VERS = 2.0
CREATION_DATE  = 
ORIGINATOR     = 

OBJECT_NAME    = STARLINK-36658
OBJECT_ID      = 2026-033AB
CENTER_NAME    = EARTH
REF_FRAME      = TEME
TIME_SYSTEM    = UTC
MEAN_ELEMENT_THEORY = SGP/SGP4

EPOCH          = 2026-03-03T14:46:23.093184
MEAN_MOTION    = 15.82408643
ECCENTRICITY   = .00025068
INCLINATION    = 42.9967
RA_OF_ASC_NODE = 308.4943
ARG_OF_PERICENTER = 262.2011
MEAN_ANOMALY   = 97.8576

EPHEMERIS_TYPE = 0
CLASSIFICATION_TYPE = U
NORAD_CAT_ID   = 67846
ELEMENT_SET_NO = 999
REV_AT_EPOCH   = 366
BSTAR          = .367463E-2
MEAN_MOTION_DOT = .872039E-2
MEAN_MOTION_DDOT = 0

CCSDS_OMM_VERS = 2.0
CREATION_DATE  = 
ORIGINATOR     = 

OBJECT_NAME    = STARLINK-36618
OBJECT_ID      = 2026-033AC
CENTER_NAME    = EARTH
REF_FRAME      = TEME
TIME_SYSTEM    = UTC
MEAN_ELEMENT_THEORY = SGP/SGP4

EPOCH          = 2026-03-03T14:00:03.000384
MEAN_MOTION    = 15.97396760
ECCENTRICITY   = .00022464
INCLINATION    = 42.9860
RA_OF_ASC_NODE = 307.0769
ARG_OF_PERICENTER = 263.9174
MEAN_ANOMALY   = 187.4047

EPHEMERIS_TYPE = 0
CLASSIFICATION_TYPE = U
NORAD_CAT_ID   = 67847
ELEMENT_SET_NO = 999
REV_AT_EPOCH   = 368
BSTAR          = -.19167123E-2
MEAN_MOTION_DOT = -.883453E-2
MEAN_MOTION_DDOT = .25457715E-3

CCSDS_OMM_VERS = 2.0
CREATION_DATE  = 
ORIGINATOR     = 

OBJECT_NAME    = STARLINK-36660
OBJECT_ID      = 2026-033AD
CENTER_NAME    = EARTH
REF_FRAME      = TEME
TIME_SYSTEM    = UTC
MEAN_ELEMENT_THEORY = SGP/SGP4

EPOCH          = 2026-03-03T01:07:05.943648
MEAN_MOTION    = 15.82113650
ECCENTRICITY   = .00020907
INCLINATION    = 42.9976
RA_OF_ASC_NODE = 311.9693
ARG_OF_PERICENTER = 252.5299
MEAN_ANOMALY   = 107.5344

EPHEMERIS_TYPE = 0
CLASSIFICATION_TYPE = U
NORAD_CAT_ID   = 67848
ELEMENT_SET_NO = 999
REV_AT_EPOCH   = 357
BSTAR          = .13971912E-2
MEAN_MOTION_DOT = .305687E-2
MEAN_MOTION_DDOT = 0

