STARLINK-36649          
1 67837U 26033S   26062.55915063  .00471124  00000+0  21015-2 0  9994
2 67837  42.9973 308.9358 0002871 243.8194 116.2382 15.82208530  3653
STARLINK-36654          
1 67838U 26033T   26062.55839854  .00516528  00000+0  22891-2 0  9999
2 67838  42.9972 308.9295 0003109 238.6749 121.3819 15.82231297  3654
STARLINK-36652          
1 67839U 26033U   26062.62078277  .00243084  00000+0  11225-2 0  9995
2 67839  42.9968 308.5372 0002158 250.3264 109.7375 15.82059357  3661
STARLINK-36651          
1 67840U 26033V   26062.62003097  .00370061  00000+0  16801-2 0  9996
2 67840  42.9973 308.5306 0002389 244.8013 115.2611 15.82089644  3669
STARLINK-36656          
1 67841U 26033W   26062.61928014  .00290023  00000+0  13325-2 0  9998
2 67841  42.9974 308.5246 0002174 279.3556  80.7069 15.82044183  3663
STARLINK-36653          
1 67842U 26033X   26062.61853222  .00274380  00000+0  12639-2 0  9992
2 67842  42.9973 308.5183 0001586 275.6066  84.4625 15.82029987  3668
STARLINK-36589          
1 67843U 26033Y   26062.61778473  .00352201  00000+0  16025-2 0  9999
2 67843  42.9975 308.5126 0002016 270.7351  89.3290 15.82089756  3662
STARLINK-36598          
1 67844U 26033Z   26062.61703578  .00354364  00000+0  16129-2 0  9991
2 67844  42.9974 308.5061 0002023 269.0122  91.0518 15.82076021  3669
STARLINK-36606          
1 67845U 26033AA  26062.61628302  .00334429  00000+0  15259-2 0  9996
2 67845  42.9973 308.4996 0001994 275.3927  84.6717 15.82076080  3668
STARLINK-36658          
1 67846U 26033AB  26062.61554506  .00872039  00000+0  36746-2 0  9999
2 67846  42.9967 308.4943 0002506 262.2011  97.8576 15.82408643  3666
STARLINK-36618          
1 67847U 26033AC  26062.58336806 -.00883453  25458-3 -19167-2 0  9997
2 67847  42.9860 307.0769 0002246 263.9174 187.4047 15.97396760  3682
STARLINK-36660          
1 67848U 26033AD  26062.04659657  .00305687  00000+0  13972-2 0  9997
2 67848  42.9976 311.9693 0002090 252.5299 107.5344 15.82113650  3570
